{
  "last_updated": "2026-06-10T06:00:02.440683",
  "satellites": {
    "98592": {
      "name": "DUTHSat-2",
      "norad_id": "98592",
      "tle": "1 64530U 25135C   26159.87195134  .00012088  00000-0  46243-3 0  9996\n2 64530  97.4607 275.7874 0004493 203.4281 156.6754 15.26718378 53665",
      "epoch": "2026-06-08T20:55:36.595776",
      "fetched_at": "2026-06-10T06:00:02.567852",
      "source": "satnogs"
    },
    "98530": {
      "name": "LAMARR",
      "norad_id": "98530",
      "tle": "1 66673U 25276H   26026.90917087  .00034524  00000-0  16680-2 0  9998\n2 66673  97.4301 102.8338 0007597 141.5941 218.5835 15.18529012  8972",
      "epoch": "2026-01-26T21:49:12.363168",
      "fetched_at": "2026-01-28T06:00:02.884758",
      "source": "satnogs",
      "note": "Using previous TLE (fetch/manual failed today)"
    },
    "98529": {
      "name": "DIRAC",
      "norad_id": "98529",
      "tle": "1 66681U 25276R   26026.63281774  .00024563  00000-0  11745-2 0  9993\n2 66681  97.4280 102.5712 0006320 148.4115 211.7500 15.18972786  8932",
      "epoch": "2026-01-26T15:11:15.452736",
      "fetched_at": "2026-01-28T06:00:02.937152",
      "source": "satnogs",
      "note": "Using previous TLE (fetch/manual failed today)"
    },
    "98518": {
      "name": "MICE-1",
      "norad_id": "98518",
      "tle": "1 66684U 25276U   26160.47273880  .00003790  00000-0  18358-3 0  9993\n2 66684  97.4270 234.2296 0006106  36.4609 323.7041 15.19137796 29246",
      "epoch": "2026-06-09T11:20:44.632320",
      "fetched_at": "2026-06-10T06:00:02.728315",
      "source": "satnogs"
    },
    "68416": {
      "name": "PeakSat",
      "norad_id": "68416",
      "tle": "1 68416U 26067A   26160.45251621  .00005724  00000-0  27372-3 0  9999\n2 68416  97.4537 119.1281 0000982  10.5546 349.5709 15.19384492 10773",
      "epoch": "2026-06-09T10:51:37.400544",
      "fetched_at": "2026-06-10T06:00:02.793257",
      "source": "satnogs"
    },
    "98370": {
      "name": "OptiSat",
      "norad_id": "98370",
      "tle": "1 69696U 69696    26089.46895426  .00000000  00000-0  00000-0 0 00004\n2 69696 097.4414 038.3720 0003145 156.7651 191.1423 15.18459822000011",
      "epoch": "2026-03-30T11:15:17.648064",
      "fetched_at": "2026-04-17T12:47:18.541523",
      "source": "manual"
    },
    "68468": {
      "name": "ERMIS-1",
      "norad_id": "68468",
      "tle": "1 68468U 26067BE  26160.60824025  .00007700  00000-0  38615-3 0  9995\n2 68468  97.4541 119.0856 0009085  85.3304 274.8967 15.17575942 10784",
      "epoch": "2026-06-09T14:35:51.957600",
      "fetched_at": "2026-06-10T06:00:02.844241",
      "source": "satnogs"
    },
    "68420": {
      "name": "ERMIS-2",
      "norad_id": "68420",
      "tle": "1 68420U 26067E   26160.45050274  .00008575  00000-0  40552-3 0  9997\n2 68420  97.4469 119.0749 0000972  82.1398 277.9947 15.19621911 10777",
      "epoch": "2026-06-09T10:48:43.436736",
      "fetched_at": "2026-06-10T06:00:02.907305",
      "source": "satnogs"
    },
    "98367": {
      "name": "ERMIS-3",
      "norad_id": "98367",
      "tle": "1 68425U 26067K   26160.34662312  .00004620  00000-0  22590-3 0  9991\n2 68425  97.4582 119.0036 0002493  52.7405 307.4056 15.18710309 10756",
      "epoch": "2026-06-09T08:19:08.237568",
      "fetched_at": "2026-06-10T06:00:02.957130",
      "source": "satnogs"
    },
    "69021": {
      "name": "Helios",
      "norad_id": "69021",
      "tle": "1 69021U 26100AT  26160.66832137  .00007101  00000-0  33344-3 0  9997\n2 69021  97.4035  58.5814 0005507  34.6994 325.4599 15.19916435  5669",
      "epoch": "2026-06-09T16:02:22.966368",
      "fetched_at": "2026-06-10T06:00:03.006753",
      "source": "satnogs"
    },
    "69020": {
      "name": "Selene",
      "norad_id": "69020",
      "tle": "1 69020U 26100AS  26160.67079351  .00006292  00000-0  29695-3 0  9992\n2 69020  97.4050  58.5884 0004797  31.6203 328.5320 15.19788512  5661",
      "epoch": "2026-06-09T16:05:56.559264",
      "fetched_at": "2026-06-10T06:00:03.060485",
      "source": "satnogs"
    }
  },
  "fetch_log": []
}